O3B FM5                 
1 39188U 13031A   21340.35831622 -.00000018  00000+0  00000+0 0  9995
2 39188   0.0361 351.2763 0002478 275.0785  93.6197  5.00116093154306
O3B FM4                 
1 39189U 13031B   21340.62391758 -.00000019  00000+0  00000+0 0  9998
2 39189   0.0526  21.3087 0003696 202.2753 136.3894  5.00116150154330
O3B FM2                 
1 39190U 13031C   21340.67639327 -.00000019  00000+0  00000+0 0  9992
2 39190   0.0560  25.4202 0006408 178.5581 155.9944  5.00115829154382
O3B PFM                 
1 39191U 13031D   21335.50613444 -.00000009  00000+0  00000+0 0  9990
2 39191   0.0419   2.2115 0005227 219.8740 137.8804  5.00357826153924
O3B FM3                 
1 40079U 14038A   21340.81116410 -.00000019  00000+0  00000+0 0  9997
2 40079   0.0465  15.6684 0003523 282.3006  61.9979  5.00115327130325
O3B FM7                 
1 40080U 14038B   21340.75747673 -.00000019  00000+0  00000+0 0  9993
2 40080   0.0464  21.3458 0002944 195.9932 142.6430  5.00115835135432
O3B FM6                 
1 40081U 14038C   21340.78366730 -.00000019  00000+0  00000+0 0  9998
2 40081   0.0476  15.7243 0002656 240.1622 104.0865  5.00115450135116
O3B FM8                 
1 40082U 14038D   21340.63776374 -.00000019  00000+0  00000+0 0  9992
2 40082   0.0505  17.4490 0002814 239.3193 103.2029  5.00115376135224
O3B FM10                
1 40348U 14083A   21340.66385134 -.00000019  00000+0  00000+0 0  9990
2 40348   0.0460   4.8561 0002645 251.7541 103.3629  5.00115802127160
O3B FM11                
1 40349U 14083B   21340.87703141 -.00000019  00000+0  00000+0 0  9996
2 40349   0.0416   6.8666 0002191 236.2325 116.8809  5.00115118127196
O3B FM12                
1 40350U 14083C   21340.14498585 -.00000018  00000+0  00000+0 0  9990
2 40350   0.0425   7.6151 0002658 242.2036 110.1558  5.00115696127166
O3B FM9                 
1 40351U 14083D   21340.13152736 -.00000018  00000+0  00000+0 0  9995
2 40351   0.0404   6.9864 0002588 247.7307 105.2574  5.00114965127318
DIAMOND RED             
1 42783U 17036U   21341.10517355  .00002143  00000+0  89355-4 0  9992
2 42783  97.2278  23.6504 0009770 295.5172  64.5056 15.24703613247613
DIAMOND GREEN           
1 42785U 17036W   21341.10468224  .00002604  00000+0  10800-3 0  9994
2 42785  97.2281  23.7038 0009639 296.0467  63.9778 15.24701742247603
DIAMOND BLUE            
1 42786U 17036X   21341.10371594  .00002558  00000+0  10612-3 0  9997
2 42786  97.2281  23.6952 0009610 296.7376  63.2878 15.24701903247606
LEO VANTAGE 1           
1 43113U 18004C   21341.15107509 -.00000013  00000+0  15380-4 0  9999
2 43113  99.2799  38.2098 0209836  41.5834 320.1084 14.12514904196456
O3B FM15                
1 43231U 18024A   21340.59763703 -.00000019  00000+0  00000+0 0  9997
2 43231   0.0491   3.0066 0002678 254.2479 102.7182  5.00115635 68292
O3B FM16                
1 43232U 18024B   21340.65095958 -.00000019  00000+0  00000+0 0  9995
2 43232   0.0525   0.2305 0002663 256.4254 103.3171  5.00115567 68227
O3B FM14                
1 43233U 18024C   21340.69057689 -.00000019  00000+0  00000+0 0  9999
2 43233   0.0540   0.0657 0002649 252.7440 107.1639  5.00116042 68234
O3B FM13                
1 43234U 18024D   21340.50452252 -.00000019  00000+0  00000+0 0  9995
2 43234   0.0266 348.1703 0000447 349.8627  21.9679  5.00115436 68342
O3B FM20                
1 44112U 19020A   21341.31673375 -.00000020  00000+0  00000+0 0  9991
2 44112   0.0464   5.5134 0002323 250.1595 104.3034  5.00115199 48955
O3B FM19                
1 44113U 19020B   21340.90429096 -.00000019  00000+0  00000+0 0  9993
2 44113   0.0310 318.3755 0002024 326.3784  75.2261  5.00115498 48921
O3B FM17                
1 44114U 19020C   21340.62450751 -.00000019  00000+0  00000+0 0  9995
2 44114   0.0652  12.0233 0002622 246.5268 101.4231  5.00115190 48809
O3B FM18                
1 44115U 19020D   21340.77107175 -.00000019  00000+0  00000+0 0  9991
2 44115   0.0461   5.2099 0002807 252.0778 102.6834  5.00115519 48936
SALSAT                  
1 46495U 20068K   21340.89324559  .00001021  00000+0  78864-4 0  9999
2 46495  97.7081 277.5093 0016164 203.6879 156.3606 15.03707091 65245
